GLOBALSTAR M045         
1 25676U 99019A   25013.52045432 -.00000066  00000+0  24047-3 0  9992
2 25676  51.9988  26.1005 0000207 252.6396 277.3751 12.27055460174404
GLOBALSTAR M019         
1 25677U 99019B   25013.55118944 -.00000212  00000+0 -12770-2 0  9998
2 25677  51.9865 145.4960 0001275  64.0836  29.9538 12.13869836166369
GLOBALSTAR M044         
1 25678U 99019C   25013.58668823 -.00000042  00000+0  58186-3 0  9990
2 25678  51.9978  77.4180 0007037 106.6103 357.1065 11.90248481152913
GLOBALSTAR M042         
1 25679U 99019D   25013.57537670 -.00000111  00000+0 -18099-3 0  9992
2 25679  52.0005 127.4248 0002217 356.2305 120.8763 12.22076526166358
GLOBALSTAR M025         
1 25770U 99031A   25013.45053201 -.00000082  00000+0 -45360-3 0  9996
2 25770  51.9798 157.7292 0001008 191.5126 207.5991 11.22558808464332
GLOBALSTAR M049         
1 25771U 99031B   25013.57238698 -.00000108  00000+0 -14986-2 0  9993
2 25771  51.9833 184.4398 0004633 108.8339 251.2960 11.12111092100227
GLOBALSTAR M047         
1 25772U 99031C   25013.52254457 -.00000069  00000+0  30344-4 0  9993
2 25772  51.9791 196.3003 0016258   2.1516 357.9358 11.31926051453591
GLOBALSTAR M052         
1 25773U 99031D   25013.24694978 -.00000002  00000+0  21408-2 0  9995
2 25773  51.9883 296.0362 0002001 291.9715 186.5184 11.15056653461226
